{"fetched_at":"2026-03-29T16:36:15Z","count":15609,"tles":[{"name":"STARLINK-3818","line1":"1 52340U 22045K   26087.79919205 -.00000493  00000+0 -12877-4 0  9998","line2":"2 52340  53.2167 113.3335 0001356  88.0432 272.0715 15.08837031218651","category":"Starlink"}]}