{
  "norad_id": 52340,
  "name": "STARLINK-3818",
  "history": [
    {
      "epoch": "2026-03-28T19:10:50.193120Z",
      "apogee_km": 540.6910832666972,
      "perigee_km": 538.8138447817391,
      "latitude_deg": -4.0284386695196245e-05,
      "longitude_deg": -0.5901234694313899,
      "height_km": 540.6160568585763,
      "semi_major_axis_km": 6917.889464024218,
      "eccentricity": 0.00013568,
      "inclination_deg": 53.2167,
      "raan_deg": 113.3335,
      "arg_perigee_deg": 88.0432,
      "mean_anomaly_deg": 272.0715,
      "mean_motion_rev_day": 15.08837031
    }
  ]
}